CCSDS_OMM_VERS = 2.0
CREATION_DATE  = 
ORIGINATOR     = 

OBJECT_NAME    = STARLINK-36559
OBJECT_ID      = 2026-014Z
CENTER_NAME    = EARTH
REF_FRAME      = TEME
TIME_SYSTEM    = UTC
MEAN_ELEMENT_THEORY = SGP/SGP4

EPOCH          = 2026-01-31T22:00:03.000096
MEAN_MOTION    = 15.93521138
ECCENTRICITY   = .00014122
INCLINATION    = 97.2775
RA_OF_ASC_NODE = 274.9344
ARG_OF_PERICENTER = 85.2563
MEAN_ANOMALY   = 75.1220

EPHEMERIS_TYPE = 0
CLASSIFICATION_TYPE = U
NORAD_CAT_ID   = 67555
ELEMENT_SET_NO = 999
REV_AT_EPOCH   = 277
BSTAR          = -.42414758E-2
MEAN_MOTION_DOT = -.1501043E-1
MEAN_MOTION_DDOT = .64861508E-3

CCSDS_OMM_VERS = 2.0
CREATION_DATE  = 
ORIGINATOR     = 

OBJECT_NAME    = MR-1
OBJECT_ID      = 2026-015A
CENTER_NAME    = EARTH
REF_FRAME      = TEME
TIME_SYSTEM    = UTC
MEAN_ELEMENT_THEORY = SGP/SGP4

EPOCH          = 2026-01-31T17:27:08.987040
MEAN_MOTION    = 13.52685219
ECCENTRICITY   = .00049642
INCLINATION    = 88.9993
RA_OF_ASC_NODE = 282.4172
ARG_OF_PERICENTER = 104.8064
MEAN_ANOMALY   = 255.3638

EPHEMERIS_TYPE = 0
CLASSIFICATION_TYPE = U
NORAD_CAT_ID   = 67556
ELEMENT_SET_NO = 999
REV_AT_EPOCH   = 126
BSTAR          = .11028095E-3
MEAN_MOTION_DOT = .85E-6
MEAN_MOTION_DDOT = 0

CCSDS_OMM_VERS = 2.0
CREATION_DATE  = 
ORIGINATOR     = 

OBJECT_NAME    = MR-2
OBJECT_ID      = 2026-015B
CENTER_NAME    = EARTH
REF_FRAME      = TEME
TIME_SYSTEM    = UTC
MEAN_ELEMENT_THEORY = SGP/SGP4

EPOCH          = 2026-01-31T17:27:23.323392
MEAN_MOTION    = 13.52660454
ECCENTRICITY   = .00050413
INCLINATION    = 88.9992
RA_OF_ASC_NODE = 282.4176
ARG_OF_PERICENTER = 103.8888
MEAN_ANOMALY   = 256.2825

EPHEMERIS_TYPE = 0
CLASSIFICATION_TYPE = U
NORAD_CAT_ID   = 67557
ELEMENT_SET_NO = 999
REV_AT_EPOCH   = 126
BSTAR          = .51909098E-4
MEAN_MOTION_DOT = .47E-6
MEAN_MOTION_DDOT = 0

CCSDS_OMM_VERS = 2.0
CREATION_DATE  = 
ORIGINATOR     = 

OBJECT_NAME    = ELECTRON R/B
OBJECT_ID      = 2026-015C
CENTER_NAME    = EARTH
REF_FRAME      = TEME
TIME_SYSTEM    = UTC
MEAN_ELEMENT_THEORY = SGP/SGP4

EPOCH          = 2026-01-31T23:12:07.407360
MEAN_MOTION    = 14.97369838
ECCENTRICITY   = .05771401
INCLINATION    = 89.0048
RA_OF_ASC_NODE = 282.1347
ARG_OF_PERICENTER = 235.7116
MEAN_ANOMALY   = 118.8198

EPHEMERIS_TYPE = 0
CLASSIFICATION_TYPE = U
NORAD_CAT_ID   = 67558
ELEMENT_SET_NO = 999
REV_AT_EPOCH   = 142
BSTAR          = .10595412E-2
MEAN_MOTION_DOT = .1030036E-1
MEAN_MOTION_DDOT = -.55584E-6

CCSDS_OMM_VERS = 2.0
CREATION_DATE  = 
ORIGINATOR     = 

OBJECT_NAME    = ELECTRON KICK STAGE R/B
OBJECT_ID      = 2026-015D
CENTER_NAME    = EARTH
REF_FRAME      = TEME
TIME_SYSTEM    = UTC
MEAN_ELEMENT_THEORY = SGP/SGP4

EPOCH          = 2026-01-31T23:20:15.654624
MEAN_MOTION    = 14.66372764
ECCENTRICITY   = .05361501
INCLINATION    = 89.0533
RA_OF_ASC_NODE = 282.2283
ARG_OF_PERICENTER = 302.4182
MEAN_ANOMALY   = 52.6234

EPHEMERIS_TYPE = 0
CLASSIFICATION_TYPE = U
NORAD_CAT_ID   = 67559
ELEMENT_SET_NO = 999
REV_AT_EPOCH   = 140
BSTAR          = .93434544E-3
MEAN_MOTION_DOT = .54873E-3
MEAN_MOTION_DDOT = -.10206E-7

CCSDS_OMM_VERS = 2.0
CREATION_DATE  = 
ORIGINATOR     = 

OBJECT_NAME    = STARLINK-36426
OBJECT_ID      = 2026-014AA
CENTER_NAME    = EARTH
REF_FRAME      = TEME
TIME_SYSTEM    = UTC
MEAN_ELEMENT_THEORY = SGP/SGP4

EPOCH          = 2026-01-31T22:00:03.000096
MEAN_MOTION    = 15.93278594
ECCENTRICITY   = .00013557
INCLINATION    = 97.2774
RA_OF_ASC_NODE = 274.9317
ARG_OF_PERICENTER = 89.7817
MEAN_ANOMALY   = 65.2922

EPHEMERIS_TYPE = 0
CLASSIFICATION_TYPE = U
NORAD_CAT_ID   = 67560
ELEMENT_SET_NO = 999
REV_AT_EPOCH   = 162
BSTAR          = -.43367482E-2
MEAN_MOTION_DOT = -.1515295E-1
MEAN_MOTION_DDOT = .65843741E-3

CCSDS_OMM_VERS = 2.0
CREATION_DATE  = 
ORIGINATOR     = 

OBJECT_NAME    = STARLINK-36621
OBJECT_ID      = 2026-016A
CENTER_NAME    = EARTH
REF_FRAME      = TEME
TIME_SYSTEM    = UTC
MEAN_ELEMENT_THEORY = SGP/SGP4

EPOCH          = 2026-01-30T16:36:14.185440
MEAN_MOTION    = 16.01900814
ECCENTRICITY   = .0000869
INCLINATION    = 97.2833
RA_OF_ASC_NODE = 89.0280
ARG_OF_PERICENTER = 36.4682
MEAN_ANOMALY   = 323.6657

EPHEMERIS_TYPE = 0
CLASSIFICATION_TYPE = U
NORAD_CAT_ID   = 67561
ELEMENT_SET_NO = 999
REV_AT_EPOCH   = 80
BSTAR          = -.68838613E-3
MEAN_MOTION_DOT = -.389579E-2
MEAN_MOTION_DDOT = .57861304E-4

CCSDS_OMM_VERS = 2.0
CREATION_DATE  = 
ORIGINATOR     = 

OBJECT_NAME    = STARLINK-36398
OBJECT_ID      = 2026-016B
CENTER_NAME    = EARTH
REF_FRAME      = TEME
TIME_SYSTEM    = UTC
MEAN_ELEMENT_THEORY = SGP/SGP4

EPOCH          = 2026-01-30T16:35:48.058944
MEAN_MOTION    = 16.02050774
ECCENTRICITY   = .00001986
INCLINATION    = 97.2832
RA_OF_ASC_NODE = 89.0285
ARG_OF_PERICENTER = 138.6845
MEAN_ANOMALY   = 221.4450

EPHEMERIS_TYPE = 0
CLASSIFICATION_TYPE = U
NORAD_CAT_ID   = 67562
ELEMENT_SET_NO = 999
REV_AT_EPOCH   = 80
BSTAR          = -.88679346E-3
MEAN_MOTION_DOT = -.505743E-2
MEAN_MOTION_DDOT = .94260023E-4

CCSDS_OMM_VERS = 2.0
CREATION_DATE  = 
ORIGINATOR     = 

OBJECT_NAME    = STARLINK-36403
OBJECT_ID      = 2026-016C
CENTER_NAME    = EARTH
REF_FRAME      = TEME
TIME_SYSTEM    = UTC
MEAN_ELEMENT_THEORY = SGP/SGP4

EPOCH          = 2026-01-30T16:35:26.433888
MEAN_MOTION    = 16.02221008
ECCENTRICITY   = .00018616
INCLINATION    = 97.2836
RA_OF_ASC_NODE = 89.0275
ARG_OF_PERICENTER = 194.7661
MEAN_ANOMALY   = 165.3565

EPHEMERIS_TYPE = 0
CLASSIFICATION_TYPE = U
NORAD_CAT_ID   = 67563
ELEMENT_SET_NO = 999
REV_AT_EPOCH   = 80
BSTAR          = -.74556519E-3
MEAN_MOTION_DOT = -.429786E-2
MEAN_MOTION_DDOT = .69721207E-4

CCSDS_OMM_VERS = 2.0
CREATION_DATE  = 
ORIGINATOR     = 

OBJECT_NAME    = STARLINK-36593
OBJECT_ID      = 2026-016D
CENTER_NAME    = EARTH
REF_FRAME      = TEME
TIME_SYSTEM    = UTC
MEAN_ELEMENT_THEORY = SGP/SGP4

EPOCH          = 2026-01-30T16:35:01.506624
MEAN_MOTION    = 16.02396118
ECCENTRICITY   = .00017758
INCLINATION    = 97.2837
RA_OF_ASC_NODE = 89.0281
ARG_OF_PERICENTER = 186.3831
MEAN_ANOMALY   = 173.7426

EPHEMERIS_TYPE = 0
CLASSIFICATION_TYPE = U
NORAD_CAT_ID   = 67564
ELEMENT_SET_NO = 999
REV_AT_EPOCH   = 80
BSTAR          = -.71090026E-3
MEAN_MOTION_DOT = -.414057E-2
MEAN_MOTION_DDOT = .65184333E-4

CCSDS_OMM_VERS = 2.0
CREATION_DATE  = 
ORIGINATOR     = 

OBJECT_NAME    = STARLINK-35725
OBJECT_ID      = 2026-016E
CENTER_NAME    = EARTH
REF_FRAME      = TEME
TIME_SYSTEM    = UTC
MEAN_ELEMENT_THEORY = SGP/SGP4

EPOCH          = 2026-01-30T16:34:41.616480
MEAN_MOTION    = 16.02587068
ECCENTRICITY   = .00003955
INCLINATION    = 97.2830
RA_OF_ASC_NODE = 89.0289
ARG_OF_PERICENTER = 167.6377
MEAN_ANOMALY   = 192.4912

EPHEMERIS_TYPE = 0
CLASSIFICATION_TYPE = U
NORAD_CAT_ID   = 67565
ELEMENT_SET_NO = 999
REV_AT_EPOCH   = 80
BSTAR          = -.62820048E-3
MEAN_MOTION_DOT = -.370073E-2
MEAN_MOTION_DDOT = .53038874E-4

CCSDS_OMM_VERS = 2.0
CREATION_DATE  = 
ORIGINATOR     = 

OBJECT_NAME    = STARLINK-36394
OBJECT_ID      = 2026-016F
CENTER_NAME    = EARTH
REF_FRAME      = TEME
TIME_SYSTEM    = UTC
MEAN_ELEMENT_THEORY = SGP/SGP4

EPOCH          = 2026-01-30T16:33:11.858976
MEAN_MOTION    = 16.03082623
ECCENTRICITY   = .00007327
INCLINATION    = 97.2825
RA_OF_ASC_NODE = 89.0312
ARG_OF_PERICENTER = 44.7927
MEAN_ANOMALY   = 315.3412

EPHEMERIS_TYPE = 0
CLASSIFICATION_TYPE = U
NORAD_CAT_ID   = 67566
ELEMENT_SET_NO = 999
REV_AT_EPOCH   = 80
BSTAR          = -.6357502E-3
MEAN_MOTION_DOT = -.385535E-2
MEAN_MOTION_DDOT = .57574838E-4

