STARLINK-36559          
1 67555U 26014Z   26031.91670139 -.01501043  64862-3 -42415-2 0  9992
2 67555  97.2775 274.9344 0001412  85.2563  75.1220 15.93521138  2778
MR-1                    
1 67556U 26015A   26031.72718735  .00000085  00000+0  11028-3 0  9992
2 67556  88.9993 282.4172 0004964 104.8064 255.3638 13.52685219  1262
MR-2                    
1 67557U 26015B   26031.72735328  .00000047  00000+0  51909-4 0  9991
2 67557  88.9992 282.4176 0005041 103.8888 256.2825 13.52660454  1268
ELECTRON R/B            
1 67558U 26015C   26031.96675240  .01030036 -55584-6  10595-2 0  9995
2 67558  89.0048 282.1347 0577140 235.7116 118.8198 14.97369838  1429
ELECTRON KICK STAGE R/B 
1 67559U 26015D   26031.97240341  .00054873 -10206-7  93435-3 0  9999
2 67559  89.0533 282.2283 0536150 302.4182  52.6234 14.66372764  1402
STARLINK-36426          
1 67560U 26014AA  26031.91670139 -.01515295  65844-3 -43367-2 0  9990
2 67560  97.2774 274.9317 0001355  89.7817  65.2922 15.93278594  1627
STARLINK-36621          
1 67561U 26016A   26030.69183085 -.00389579  57861-4 -68839-3 0  9992
2 67561  97.2833  89.0280 0000869  36.4682 323.6657 16.01900814   808
STARLINK-36398          
1 67562U 26016B   26030.69152846 -.00505743  94260-4 -88679-3 0  9995
2 67562  97.2832  89.0285 0000198 138.6845 221.4450 16.02050774   802
STARLINK-36403          
1 67563U 26016C   26030.69127817 -.00429786  69721-4 -74557-3 0  9992
2 67563  97.2836  89.0275 0001861 194.7661 165.3565 16.02221008   806
STARLINK-36593          
1 67564U 26016D   26030.69098966 -.00414057  65184-4 -71090-3 0  9998
2 67564  97.2837  89.0281 0001775 186.3831 173.7426 16.02396118   809
STARLINK-35725          
1 67565U 26016E   26030.69075945 -.00370073  53039-4 -62820-3 0  9997
2 67565  97.2830  89.0289 0000395 167.6377 192.4912 16.02587068   809
STARLINK-36394          
1 67566U 26016F   26030.68972059 -.00385535  57575-4 -63575-3 0  9995
2 67566  97.2825  89.0312 0000732  44.7927 315.3412 16.03082623   801
